IRIDIUM 36 [-]          
1 24967U 97056C   24063.88900847  .00001138  00000+0  38030-3 0  9993
2 24967  86.4015  10.4722 0002388  86.3365 273.8105 14.36660222384678
IRIDIUM 39 [-]          
1 25042U 97069D   24063.89068805  .00001602  00000+0  42763-3 0  9996
2 25042  86.3887  52.5939 0020628  77.2657 283.0850 14.47728499380888
IRIDIUM 38 [-]          
1 25043U 97069E   24063.51147109  .00000618  00000+0  20161-3 0  9995
2 25043  86.3905  71.0615 0001969 151.1341 208.9966 14.37114402378339
IRIDIUM 42 [-]          
1 25077U 97077A   24063.57908422  .00000540  00000+0  18121-3 0  9997
2 25077  86.3905  76.6329 0001955 106.1048 254.0364 14.35408579373662
IRIDIUM 44 [-]          
1 25078U 97077B   24063.88993900  .00001072  00000+0  33954-3 0  9999
2 25078  86.3914  59.6763 0003817 109.0039 251.1574 14.39232969376034
IRIDIUM 45 [-]          
1 25104U 97082A   24063.59294527  .00010238  00000+0  61916-3 0  9995
2 25104  86.3709 271.7051 0166750 262.8589  95.3658 14.99522808381012
IRIDIUM 24 [-]          
1 25105U 97082B   24063.69100562  .00000466  00000+0  13862-3 0  9991
2 25105  86.3864 279.5525 0011189 181.0912 179.0265 14.41003874375431
IRIDIUM 51 [-]          
1 25262U 98018A   24063.62843284  .00012731  00000+0  64726-3 0  9996
2 25262  86.3906 281.8234 0151831 210.0155 149.2317 15.07131393375490
